{"features":[{"id":"e4a3238070ef6e8b98c50dd9f408eb85","type":"Feature","properties":{"fid":"e4a3238070ef6e8b98c50dd9f408eb85","name":"LineString"},"geometry":{"coordinates":[[-70.4645939255466,41.1385000697359],[-70.4645939255466,41.11966036092312],[-70.4417106925308,41.120061262115],[-70.44011418790201,41.10482529537137],[-70.4417106925308,41.08677813042894],[-70.42095613235398,41.087580331932486],[-70.39807289933819,41.087580331932486],[-70.39594422649976,41.06992963659698],[-70.37306099348396,41.07193563613674],[-70.37306099348396,41.0550833377944],[-70.37252882527434,41.03862811934607],[-70.39434772187096,41.03822672114825],[-70.39487989008053,41.02096428310401],[-70.41776312309632,41.02056277720757],[-70.41510228204777,41.00450053436177],[-70.43798551506357,41.00289409469977],[-70.4395820196924,40.98843437565236],[-70.4598044116596,40.98843437565236],[-70.48109114004657,40.986425830494284],[-70.46086874807882,41.00450053436177],[-70.48321981288501,41.00450053436177],[-70.46086874807882,40.97115888798055],[-70.44064635611161,41.02176728755404],[-70.4629974209178,41.02176728755404],[-70.48215547646579,41.02056277720757],[-70.50503870948158,41.00490213815874],[-70.5055708776912,41.02216878610764],[-70.52632543786804,41.0189567291458],[-70.55080517551266,41.02056277720757],[-70.57155973568948,41.0189567291458],[-70.5726240721092,41.0366211038822],[-70.59497513691488,41.03621969344616],[-70.57368840852843,41.05227420155893],[-70.55133734372224,41.03621969344616],[-70.55080517551266,41.054280739681644],[-70.55080517551266,41.068726007494746],[-70.52792194249685,41.069528429344444],[-70.52951844712621,41.05387943695328],[-70.52951844712621,41.03742391741085],[-70.5061030459008,41.0366211038822],[-70.50663521411042,41.054280739681644],[-70.48534848572399,41.03782532050346],[-70.48428414930423,41.0534781317769],[-70.46086874807882,41.0366211038822],[-70.46086874807882,41.05387943695328],[-70.44011418790201,41.03822672114825],[-70.4417106925308,41.05387943695328],[-70.41935962772514,41.03782532050346],[-70.41829529130594,41.05588592611505],[-70.39754073112857,41.055484633178736],[-70.41829529130594,41.069528429344444],[-70.43904985148276,41.07153444112524],[-70.48428414930423,41.069528429344444],[-70.50663521411042,41.06912721964372],[-70.52951844712621,41.086377026004584],[-70.5055708776912,41.08798142901168],[-70.50663521411042,41.10522628716484],[-70.48588065393359,41.10482529537137],[-70.48588065393359,41.087580331932486],[-70.46246525270818,41.08597591913181],[-70.46193308449855,41.1032213037106]],"type":"LineString"},"name":"LineString"}],"name":"line","type":"FeatureCollection"}